[{"OBJECT_NAME":"STARLINK-6096","OBJECT_ID":"2023-046L","EPOCH":"2026-03-09T22:00:01.999584","MEAN_MOTION":15.05512565,"ECCENTRICITY":0.00020255,"INCLINATION":43.0001,"RA_OF_ASC_NODE":157.7071,"ARG_OF_PERICENTER":261.3426,"MEAN_ANOMALY":192.0101,"EPHEMERIS_TYPE":0,"CLASSIFICATION_TYPE":"U","NORAD_CAT_ID":56103,"ELEMENT_SET_NO":999,"REV_AT_EPOCH":578,"BSTAR":0.00036896386,"MEAN_MOTION_DOT":5.191e-5,"MEAN_MOTION_DDOT":0},{"OBJECT_NAME":"SL-6 R\/B(2)","OBJECT_ID":"1990-055D","EPOCH":"2026-03-09T21:41:59.551872","MEAN_MOTION":15.03595553,"ECCENTRICITY":0.00247741,"INCLINATION":62.7825,"RA_OF_ASC_NODE":253.121,"ARG_OF_PERICENTER":347.1508,"MEAN_ANOMALY":12.8957,"EPHEMERIS_TYPE":0,"CLASSIFICATION_TYPE":"U","NORAD_CAT_ID":20666,"ELEMENT_SET_NO":999,"REV_AT_EPOCH":93822,"BSTAR":0.00020900577,"MEAN_MOTION_DOT":2.688e-5,"MEAN_MOTION_DDOT":0}]
